[{"OBJECT_NAME":"TROOP-F2","OBJECT_ID":"2024-149CT","EPOCH":"2026-03-09T19:32:55.399776","MEAN_MOTION":15.71081872,"ECCENTRICITY":0.00034643,"INCLINATION":97.3621,"RA_OF_ASC_NODE":159.7382,"ARG_OF_PERICENTER":230.7595,"MEAN_ANOMALY":129.3361,"EPHEMERIS_TYPE":0,"CLASSIFICATION_TYPE":"U","NORAD_CAT_ID":60557,"ELEMENT_SET_NO":999,"REV_AT_EPOCH":8756,"BSTAR":0.001093104,"MEAN_MOTION_DOT":0.00139132,"MEAN_MOTION_DDOT":0},{"OBJECT_NAME":"STARLINK-11417 [DTC]","OBJECT_ID":"2025-031C","EPOCH":"2026-03-09T05:13:20.003232","MEAN_MOTION":15.70872456,"ECCENTRICITY":0.00022374,"INCLINATION":42.9999,"RA_OF_ASC_NODE":4.7105,"ARG_OF_PERICENTER":244.1937,"MEAN_ANOMALY":115.87,"EPHEMERIS_TYPE":0,"CLASSIFICATION_TYPE":"U","NORAD_CAT_ID":62983,"ELEMENT_SET_NO":999,"REV_AT_EPOCH":6266,"BSTAR":0.0012060587,"MEAN_MOTION_DOT":0.00157492,"MEAN_MOTION_DDOT":0}]
