TROOP-F2                
1 60557U 24149CT  26068.81453008  .00139132  00000+0  10931-2 0  9998
2 60557  97.3621 159.7382 0003464 230.7595 129.3361 15.71081872 87567
STARLINK-11417 [DTC]    
1 62983U 25031C   26068.21759263  .00157492  00000+0  12061-2 0  9995
2 62983  42.9999   4.7105 0002237 244.1937 115.8700 15.70872456 62660
